STARLINK-34090          
1 63976U 25099AA  26068.28556514  .00025133  00000+0  91973-3 0  9999
2 63976  43.0016 175.1071 0001442 278.2698  81.7990 15.27579691 47223
KUIPER-00266            
1 67789U 26030AB  26067.91293632  .00029701  00000+0  98220-3 0  9996
2 67789  51.8807 223.5904 0022313  72.5291 287.8129 15.30874235  4964
